{"type": "FeatureCollection", "features": [{"type": "Feature", "properties": {"norad_id": 25590, "name": "COSMOS 2361", "group": "musson", "lat": 73.20038331167787, "lon": 146.82047841539534, "alt_km": 1003.0652581481254, "timestamp": "2025-12-03T06:58:43.507349+00:00", "meta": {"OBJECT_NAME": "COSMOS 2361", "OBJECT_ID": "1998-076A", "EPOCH": "2025-12-02T19:04:05.950848", "MEAN_MOTION": 13.7321583, "ECCENTRICITY": 0.0030169, "INCLINATION": 82.9342, "RA_OF_ASC_NODE": 351.4427, "ARG_OF_PERICENTER": 294.4791, "MEAN_ANOMALY": 238.7655, "EPHEMERIS_TYPE": 0, "CLASSIFICATION_TYPE": "U", "NORAD_CAT_ID": 25590, "ELEMENT_SET_NO": 999, "REV_AT_EPOCH": 34974, "BSTAR": 8.3725e-05, "MEAN_MOTION_DOT": 9.3e-07, "MEAN_MOTION_DDOT": 0}, "tle": {"line1": "1 25590U 98076A   25336.79451332  .00000093  00000+0  83725-4 0  9994", "line2": "2 25590  82.9342 351.4427 0030169 294.4791 238.7655 13.73215830349748"}}, "geometry": {"type": "Point", "coordinates": [146.82047841539534, 73.20038331167787]}}, {"type": "Feature", "properties": {"norad_id": 26818, "name": "COSMOS 2378", "group": "musson", "lat": 33.56628323231108, "lon": -177.99320746240943, "alt_km": 980.8227506072262, "timestamp": "2025-12-03T06:58:43.507374+00:00", "meta": {"OBJECT_NAME": "COSMOS 2378", "OBJECT_ID": "2001-023A", "EPOCH": "2025-12-02T20:37:34.661280", "MEAN_MOTION": 13.74140569, "ECCENTRICITY": 0.0031897, "INCLINATION": 82.928, "RA_OF_ASC_NODE": 7.0513, "ARG_OF_PERICENTER": 233.114, "MEAN_ANOMALY": 300.6428, "EPHEMERIS_TYPE": 0, "CLASSIFICATION_TYPE": "U", "NORAD_CAT_ID": 26818, "ELEMENT_SET_NO": 999, "REV_AT_EPOCH": 22787, "BSTAR": 6.0881e-05, "MEAN_MOTION_DOT": 7.2e-07, "MEAN_MOTION_DDOT": 0}, "tle": {"line1": "1 26818U 01023A   25336.85942895  .00000072  00000+0  60881-4 0  9995", "line2": "2 26818  82.9280   7.0513 0031897 233.1140 300.6428 13.74140569227873"}}, "geometry": {"type": "Point", "coordinates": [-177.99320746240943, 33.56628323231108]}}, {"type": "Feature", "properties": {"norad_id": 27436, "name": "COSMOS 2389", "group": "musson", "lat": -41.18754169232853, "lon": -52.236340666918565, "alt_km": 1009.137427513082, "timestamp": "2025-12-03T06:58:43.507389+00:00", "meta": {"OBJECT_NAME": "COSMOS 2389", "OBJECT_ID": "2002-026A", "EPOCH": "2025-12-02T21:01:02.440416", "MEAN_MOTION": 13.75153046, "ECCENTRICITY": 0.0047787, "INCLINATION": 82.9494, "RA_OF_ASC_NODE": 314.2878, "ARG_OF_PERICENTER": 87.5253, "MEAN_ANOMALY": 337.8185, "EPHEMERIS_TYPE": 0, "CLASSIFICATION_TYPE": "U", "NORAD_CAT_ID": 27436, "ELEMENT_SET_NO": 999, "REV_AT_EPOCH": 18013, "BSTAR": 6.8886e-05, "MEAN_MOTION_DOT": 8.2e-07, "MEAN_MOTION_DDOT": 0}, "tle": {"line1": "1 27436U 02026A   25336.87572269  .00000082  00000+0  68886-4 0  9996", "line2": "2 27436  82.9494 314.2878 0047787  87.5253 337.8185 13.75153046180139"}}, "geometry": {"type": "Point", "coordinates": [-52.236340666918565, -41.18754169232853]}}, {"type": "Feature", "properties": {"norad_id": 27818, "name": "COSMOS 2398", "group": "musson", "lat": 5.256906431243223, "lon": -79.68557179573781, "alt_km": 1008.9597146502601, "timestamp": "2025-12-03T06:58:43.507401+00:00", "meta": {"OBJECT_NAME": "COSMOS 2398", "OBJECT_ID": "2003-023A", "EPOCH": "2025-12-02T20:42:48.434976", "MEAN_MOTION": 13.72384231, "ECCENTRICITY": 0.0032201, "INCLINATION": 82.9475, "RA_OF_ASC_NODE": 279.977, "ARG_OF_PERICENTER": 138.3134, "MEAN_ANOMALY": 275.3716, "EPHEMERIS_TYPE": 0, "CLASSIFICATION_TYPE": "U", "NORAD_CAT_ID": 27818, "ELEMENT_SET_NO": 999, "REV_AT_EPOCH": 12681, "BSTAR": 4.227e-05, "MEAN_MOTION_DOT": 5.4e-07, "MEAN_MOTION_DDOT": 0}, "tle": {"line1": "1 27818U 03023A   25336.86306059  .00000054  00000+0  42270-4 0  9997", "line2": "2 27818  82.9475 279.9770 0032201 138.3134 275.3716 13.72384231126818"}}, "geometry": {"type": "Point", "coordinates": [-79.68557179573781, 5.256906431243223]}}, {"type": "Feature", "properties": {"norad_id": 28380, "name": "COSMOS 2407", "group": "musson", "lat": 66.80914274006606, "lon": -123.35120487877941, "alt_km": 941.3819880044593, "timestamp": "2025-12-03T06:58:43.507413+00:00", "meta": {"OBJECT_NAME": "COSMOS 2407", "OBJECT_ID": "2004-028A", "EPOCH": "2025-12-02T18:46:01.833024", "MEAN_MOTION": 13.76311972, "ECCENTRICITY": 0.0040534, "INCLINATION": 82.9614, "RA_OF_ASC_NODE": 220.2647, "ARG_OF_PERICENTER": 81.8447, "MEAN_ANOMALY": 346.5259, "EPHEMERIS_TYPE": 0, "CLASSIFICATION_TYPE": "U", "NORAD_CAT_ID": 28380, "ELEMENT_SET_NO": 999, "REV_AT_EPOCH": 7286, "BSTAR": 9.0821e-05, "MEAN_MOTION_DOT": 1.05e-06, "MEAN_MOTION_DDOT": 0}, "tle": {"line1": "1 28380U 04028A   25336.78196566  .00000105  00000+0  90821-4 0  9991", "line2": "2 28380  82.9614 220.2647 0040534  81.8447 346.5259 13.76311972 72861"}}, "geometry": {"type": "Point", "coordinates": [-123.35120487877941, 66.80914274006606]}}, {"type": "Feature", "properties": {"norad_id": 28521, "name": "COSMOS 2414", "group": "musson", "lat": -61.17774157729203, "lon": 178.80800335539539, "alt_km": 962.7609799356833, "timestamp": "2025-12-03T06:58:43.507425+00:00", "meta": {"OBJECT_NAME": "COSMOS 2414", "OBJECT_ID": "2005-002A", "EPOCH": "2025-12-02T20:53:51.937728", "MEAN_MOTION": 13.87900867, "ECCENTRICITY": 0.0040287, "INCLINATION": 82.9499, "RA_OF_ASC_NODE": 192.1221, "ARG_OF_PERICENTER": 167.4249, "MEAN_ANOMALY": 192.793, "EPHEMERIS_TYPE": 0, "CLASSIFICATION_TYPE": "U", "NORAD_CAT_ID": 28521, "ELEMENT_SET_NO": 999, "REV_AT_EPOCH": 5658, "BSTAR": 8.0555e-05, "MEAN_MOTION_DOT": 1.12e-06, "MEAN_MOTION_DDOT": 0}, "tle": {"line1": "1 28521U 05002A   25336.87074002  .00000112  00000+0  80555-4 0  9992", "line2": "2 28521  82.9499 192.1221 0040287 167.4249 192.7930 13.87900867 56587"}}, "geometry": {"type": "Point", "coordinates": [178.80800335539539, -61.17774157729203]}}, {"type": "Feature", "properties": {"norad_id": 32052, "name": "COSMOS 2429", "group": "musson", "lat": 34.16187572008859, "lon": 165.47914867368846, "alt_km": 974.6980621039493, "timestamp": "2025-12-03T06:58:43.507437+00:00", "meta": {"OBJECT_NAME": "COSMOS 2429", "OBJECT_ID": "2007-038A", "EPOCH": "2025-12-02T18:03:15.022080", "MEAN_MOTION": 13.75147947, "ECCENTRICITY": 0.003965, "INCLINATION": 82.9805, "RA_OF_ASC_NODE": 350.6721, "ARG_OF_PERICENTER": 65.0194, "MEAN_ANOMALY": 295.5073, "EPHEMERIS_TYPE": 0, "CLASSIFICATION_TYPE": "U", "NORAD_CAT_ID": 32052, "ELEMENT_SET_NO": 999, "REV_AT_EPOCH": 91465, "BSTAR": 7.647e-05, "MEAN_MOTION_DOT": 8.9e-07, "MEAN_MOTION_DDOT": 0}, "tle": {"line1": "1 32052U 07038A   25336.75225720  .00000089  00000+0  76470-4 0  9993", "line2": "2 32052  82.9805 350.6721 0039650  65.0194 295.5073 13.75147947914652"}}, "geometry": {"type": "Point", "coordinates": [165.47914867368846, 34.16187572008859]}}, {"type": "Feature", "properties": {"norad_id": 35635, "name": "COSMOS 2454", "group": "musson", "lat": -78.50598262849064, "lon": 138.35780433931475, "alt_km": 951.2183274799081, "timestamp": "2025-12-03T06:58:43.507447+00:00", "meta": {"OBJECT_NAME": "COSMOS 2454", "OBJECT_ID": "2009-039A", "EPOCH": "2025-12-02T19:19:53.237856", "MEAN_MOTION": 13.89926641, "ECCENTRICITY": 0.0020476, "INCLINATION": 82.9557, "RA_OF_ASC_NODE": 176.1754, "ARG_OF_PERICENTER": 100.2872, "MEAN_ANOMALY": 271.8916, "EPHEMERIS_TYPE": 0, "CLASSIFICATION_TYPE": "U", "NORAD_CAT_ID": 35635, "ELEMENT_SET_NO": 999, "REV_AT_EPOCH": 83012, "BSTAR": 7.1193e-05, "MEAN_MOTION_DOT": 1.04e-06, "MEAN_MOTION_DDOT": 0}, "tle": {"line1": "1 35635U 09039A   25336.80547729  .00000104  00000+0  71193-4 0  9993", "line2": "2 35635  82.9557 176.1754 0020476 100.2872 271.8916 13.89926641830127"}}, "geometry": {"type": "Point", "coordinates": [138.35780433931475, -78.50598262849064]}}, {"type": "Feature", "properties": {"norad_id": 36519, "name": "COSMOS 2463", "group": "musson", "lat": -39.6632898427773, "lon": -140.46537289203874, "alt_km": 1002.4070671187192, "timestamp": "2025-12-03T06:58:43.507459+00:00", "meta": {"OBJECT_NAME": "COSMOS 2463", "OBJECT_ID": "2010-017A", "EPOCH": "2025-12-02T16:27:27.586080", "MEAN_MOTION": 13.71647766, "ECCENTRICITY": 0.0035125, "INCLINATION": 82.9622, "RA_OF_ASC_NODE": 34.1003, "ARG_OF_PERICENTER": 316.8812, "MEAN_ANOMALY": 157.4571, "EPHEMERIS_TYPE": 0, "CLASSIFICATION_TYPE": "U", "NORAD_CAT_ID": 36519, "ELEMENT_SET_NO": 999, "REV_AT_EPOCH": 78099, "BSTAR": 7.41e-05, "MEAN_MOTION_DOT": 8.2e-07, "MEAN_MOTION_DDOT": 0}, "tle": {"line1": "1 36519U 10017A   25336.68573595  .00000082  00000+0  74100-4 0  9995", "line2": "2 36519  82.9622  34.1003 0035125 316.8812 157.4571 13.71647766780992"}}, "geometry": {"type": "Point", "coordinates": [-140.46537289203874, -39.6632898427773]}}]}